{
    "links": {
        "self": "http://www.neowsapp.com/rest/v1/neo/3631789?api_key=iIulBulltgU6a56xZRHN4H3l9WmuAYTsLGpBGhQ2"
    },
    "id": "3631789",
    "neo_reference_id": "3631789",
    "name": "(2013 EN20)",
    "designation": "2013 EN20",
    "nasa_jpl_url": "http://ssd.jpl.nasa.gov/sbdb.cgi?sstr=3631789",
    "absolute_magnitude_h": 29.1,
    "estimated_diameter": {
        "kilometers": {
            "estimated_diameter_min": 0.0040230458,
            "estimated_diameter_max": 0.0089958039
        },
        "meters": {
            "estimated_diameter_min": 4.0230457983,
            "estimated_diameter_max": 8.9958038817
        },
        "miles": {
            "estimated_diameter_min": 0.002499804,
            "estimated_diameter_max": 0.0055897317
        },
        "feet": {
            "estimated_diameter_min": 13.198969577,
            "estimated_diameter_max": 29.5137932072
        }
    },
    "is_potentially_hazardous_asteroid": false,
    "close_approach_data": [
        {
            "close_approach_date": "2013-03-10",
            "close_approach_date_full": "2013-Mar-10 15:01",
            "epoch_date_close_approach": 1362927660000,
            "relative_velocity": {
                "kilometers_per_second": "7.3061036272",
                "kilometers_per_hour": "26301.973057769",
                "miles_per_hour": "16343.0232035899"
            },
            "miss_distance": {
                "astronomical": "0.0029851395",
                "lunar": "1.1612192655",
                "kilometers": "446570.510852865",
                "miles": "277486.048244937"
            },
            "orbiting_body": "Earth"
        },
        {
            "close_approach_date": "2013-03-11",
            "close_approach_date_full": "2013-Mar-11 01:31",
            "epoch_date_close_approach": 1362965460000,
            "relative_velocity": {
                "kilometers_per_second": "7.8180970562",
                "kilometers_per_hour": "28145.149402222",
                "miles_per_hour": "17488.3013049529"
            },
            "miss_distance": {
                "astronomical": "0.0040424591",
                "lunar": "1.5725165899",
                "kilometers": "604743.270922117",
                "miles": "375770.0438625346"
            },
            "orbiting_body": "Moon"
        },
        {
            "close_approach_date": "2015-02-04",
            "close_approach_date_full": "2015-Feb-04 01:36",
            "epoch_date_close_approach": 1423013760000,
            "relative_velocity": {
                "kilometers_per_second": "20.6201477488",
                "kilometers_per_hour": "74232.5318958506",
                "miles_per_hour": "46125.2084993967"
            },
            "miss_distance": {
                "astronomical": "0.442993348",
                "lunar": "172.324412372",
                "kilometers": "66270861.28496876",
                "miles": "41178803.715978488"
            },
            "orbiting_body": "Earth"
        }
    ],
    "orbital_data": {
        "orbit_id": "4",
        "orbit_determination_date": "2017-04-06 08:46:33",
        "first_observation_date": "2013-03-07",
        "last_observation_date": "2013-03-08",
        "data_arc_in_days": 1,
        "observations_used": 16,
        "orbit_uncertainty": "8",
        "minimum_orbit_intersection": ".00245992",
        "jupiter_tisserand_invariant": "4.318",
        "epoch_osculation": "2456359.5",
        "eccentricity": ".3907188607422216",
        "semi_major_axis": "1.573737062749377",
        "inclination": "2.07078682760011",
        "ascending_node_longitude": "166.6642066082838",
        "orbital_period": "721.1019770096248",
        "perihelion_distance": ".9588483104841303",
        "perihelion_argument": "32.8729436284891",
        "aphelion_distance": "2.188625815014624",
        "perihelion_time": "2456386.506186151751",
        "mean_anomaly": "346.5175421443885",
        "mean_motion": ".4992359076491548",
        "equinox": "J2000",
        "orbit_class": {
            "orbit_class_type": "APO",
            "orbit_class_description": "Near-Earth asteroid orbits which cross the Earth’s orbit similar to that of 1862 Apollo",
            "orbit_class_range": "a (semi-major axis) > 1.0 AU; q (perihelion) < 1.017 AU"
        }
    },
    "is_sentry_object": false
}